    PK15T19O  2016 03  5.2182  2.924772  0.358073   89.1344  321.6511    6.4995  20201226  14.0  4.0  P/2015 TO19 (Lemmon-PANSTARRS)                           MPC102953
    PK15TK0P  2016 10 27.1063  3.383809  0.534942   82.6255    6.9954    8.7767  20201226  11.0  4.0  P/2015 TP200 (LINEAR)                                    MPC110080
    CK15TK9Q  2016 08 25.4316  1.416238  0.997592  282.1604  223.3598   11.3030  20201226  10.5  4.0  C/2015 TQ209 (LINEAR)                                    MPC101097
    CK15V010  2017 12 16.9071  4.269629  0.998253  179.6208  197.1861  139.2238  20201226   6.5  4.0  C/2015 V1 (PANSTARRS)                                    MPC115881
    CK15V020  2017 06 11.9262  1.643933  1.001866  164.9992   69.8944   49.8571  20201226   5.0  4.0  C/2015 V2 (Johnson)                                      MPC112390
    CK15V040  2016 08 28.2906  5.460926  0.704441  306.9837  179.9325   60.7838  20201226   8.5  4.0  C/2015 V4 (PANSTARRS)                                    MPC104791
    CK15V62L  2017 08 27.8937  2.717548  1.001197  128.7888   95.1021  165.8166  20201226   8.0  4.0  C/2015 VL62 (Lemmon-Yeung-PANSTARRS)                     MPC115881
    CK15W00Z  2016 04 13.7546  1.380713  0.990609   66.7395   40.1842  134.6198  20201226  15.0  4.0  C/2015 WZ (PANSTARRS)                                    MPC102098
    CK15W010  2016 05 13.8339  2.243423  0.999256   48.1711  114.3163   87.3621  20201226  13.0  4.0  C/2015 W1 (Gibbs)                                        MPC109142
    PK15W020  2015 09 30.5931  2.671783  0.633825  117.5030  294.2530   11.6070  20201226  13.0  4.0  P/2015 W2 (Catalina)                                     MPC101098
    PK15X010  2022 09  7.2275  2.110006  0.419006  218.9408  161.7691   12.1515  20201226  16.0  4.0  P/2015 X1 (PANSTARRS)                                    MPC101098
    CK15X01Y  2018 04 27.7096  7.923970  1.002792  196.2288  281.6213  148.8547  20201226   5.5  4.0  C/2015 XY1 (Lemmon)                                      MPEC 2020-AA5
    CK15X020  2015 12 17.6935  1.926872  0.877863   42.3303  101.0989   72.0731  20201226  16.0  4.0  C/2015 X2 (Catalina)                                     MPC100281
    PK15X030  2015 08  7.9899  2.811382  0.438806  306.6542   77.3157   24.3863  20201226  15.0  4.0  P/2015 X3 (PANSTARRS)                                    MPC 97498
    CK15X050  2017 12 29.3841  6.797264  1.001852   27.6550  122.3463  124.3082  20201226   7.5  4.0  C/2015 X5 (PANSTARRS)                                    MPC119995
    PK15X060  2020 10 17.1251  2.278166  0.172573  329.8678  106.9471    4.5647  20201226  16.0  4.0  P/2015 X6 (PANSTARRS)                                    MPC115881
    CK15X070  2016 07 29.1616  3.681445  0.999680  348.3852  139.9292   57.5600  20201226   9.0  4.0  C/2015 X7 (ATLAS)                                        MPC109143
    CK15Y010  2016 05 13.5273  2.516350  0.989640   24.6610  135.8180   71.1643  20201226  12.0  4.0  C/2015 Y1 (LINEAR)                                       MPC109143
    CK16A010  2017 11 22.5125  5.322755  1.001273   10.2373  128.2078  121.2052  20201226   6.0  4.0  C/2016 A1 (PANSTARRS)                                    MPC119995
    PK16A020  2025 10 25.9898  3.465094  0.270686  141.5090  291.6148   26.4064  20201226  11.5  4.0  P/2016 A2 (Christensen)                                  MPC100282
    PK16A030  2017 04 29.1885  4.835253  0.387169  341.0012  187.2575    8.5101  20201226  10.0  4.0  P/2016 A3 (PANSTARRS)                                    MPC115881
    PK16A070  2016 02 24.3199  2.188098  0.565162  352.6254  221.4883   16.6199  20201226  16.0  4.0  P/2016 A7 (PANSTARRS)                                    MPC102098
    CK16A080  2016 08 29.1941  1.889385  0.944944  130.4208  111.3395  148.2430  20201226  12.0  4.0  C/2016 A8 (LINEAR)                                       MPC106345
    CK16B010  2016 12  4.5743  3.215953  0.992692    8.6847  232.0057   50.4517  20201226   9.5  4.0  C/2016 B1 (NEOWISE)                                      MPC107048
    PK16B14A  2021 06 17.3260  1.012751  0.665213  351.8921  180.5295   18.8937  20201226  21.0  4.0  P/2016 BA14 (PANSTARRS)                                  MPC109143
    CK16C010  2016 02 18.3286  8.464250  1.001818  328.7271  181.8177   56.2334  20201226   5.5  4.0  C/2016 C1 (PANSTARRS)                                    MPC110494
    CK16C020  2016 04 19.2010  1.569049  0.976214  214.5751   24.4277   38.0438  20201226  16.0  4.0  C/2016 C2 (NEOWISE)                                      MPC101098
    CK16E010  2017 06  4.3788  8.179202  1.006214   47.4776  233.0796  131.8872  20201226   6.5  4.0  C/2016 E1 (PANSTARRS)                                    MPC110494
    CK16E020  2016 02  7.2057  1.074161  0.992350  321.9592  186.9214  135.8880  20201226  20.0  4.0  C/2016 E2 (Kowalski)                                     MPC 99821
    PK16G010  2021 03 22.2517  2.037833  0.211157  111.2349  204.0485   10.9677  20201226  14.0  4.0  P/2016 G1 (PANSTARRS)                                    MPC102098
    PK16J01a  2022 02 20.4351  2.449880  0.228091   46.9172  199.8156   14.3257  20201226  16.5  4.0  P/2016 J1-A (PANSTARRS)                                  MPEC 2017-D91
    PK16J01b  2022 02 19.6449  2.450067  0.227942   46.8083  199.8205   14.3285  20201226  17.0  4.0  P/2016 J1-B (PANSTARRS)                                  MPEC 2017-A77
    CK16J020  2016 04 12.4732  1.519272  0.997648  318.6553  186.4193  130.3292  20201226  17.0  4.0  C/2016 J2 (Denneau)                                      MPC101099
    CK16K00A  2016 02  2.8092  5.407121  0.999657   63.2200  317.5053  104.6933  20201226   8.5  4.0  C/2016 KA (Catalina)                                     MPC102099
    CK16K010  2016 07 13.4930  2.295363  1.000134   18.3108  325.6155   90.9389  20201226  13.0  4.0  C/2016 K1 (LINEAR)                                       MPC104792
    CK16M010  2018 08 10.3846  2.212690  0.999685  209.8992   92.2109   90.9894  20201226   5.0  4.0  C/2016 M1 (PANSTARRS)                                    MPC119995
    CK16N040  2017 09 16.6110  3.197840  0.998807   55.9398  353.9955   72.6171  20201226   8.5  4.0  C/2016 N4 (MASTER)                                       MPC115881
    CK16N060  2018 07 18.0228  2.665786  0.998197  162.7260  298.9891  105.8409  20201226   7.0  4.0  C/2016 N6 (PANSTARRS)                                    MPC119995
    PK16P010  2021 06 10.2071  2.270262  0.289204  270.0800  319.5645   24.4562  20201226  15.0  4.0  P/2016 P1 (PANSTARRS)                                    MPC102099
    CK16P040  2016 10 18.4641  5.896448  0.985627  356.2197  320.7264   29.8804  20201226  10.5  4.0  C/2016 P4 (PANSTARRS)                                    MPC102099
    CK16Q020  2021 05 11.7576  7.081915  1.000160   84.5191  322.2971  109.3885  20201226   6.0  4.0  C/2016 Q2 (PANSTARRS)                                    MPC118093
    CK16Q040  2018 01 27.5853  7.086141  0.581379   99.4328  271.2891    7.2564  20201226   7.0  4.0  C/2016 Q4 (Kowalski)                                     MPC102955
    CK16R020  2018 05  9.1515  2.602395  0.995008   33.1623   80.5627   58.2329  20201226   7.0  4.0  C/2016 R2 (PANSTARRS)                                    MPC119995
    CK16R030  2016 10 10.1644  0.453159  0.997719  118.1836   78.7312   53.0355  20201226  18.0  4.0  C/2016 R3 (Borisov)                                      MPC102099
    PK16R040  2016 07 21.8943  2.792513  0.476228  174.0217  168.2724   10.8726  20201226  12.5  4.0  P/2016 R4 (Gibbs)                                        MPC109144
    PK16S010  2017 03 16.0419  2.400657  0.710013  273.2767  227.5440   94.6710  20201226  12.0  4.0  P/2016 S1 (PANSTARRS)                                    MPC105543
    CK16T010  2017 02  1.3463  2.305169  0.981521  137.4588   56.3189  129.8499  20201226  14.5  4.0  C/2016 T1 (Matheny)                                      MPC105238
    CK16T020  2016 12 29.2730  1.904671  0.980801   92.2173  339.1754   81.3917  20201226  14.5  4.0  C/2016 T2 (Matheny)                                      MPC107685
    CK16T030  2017 09  6.4422  2.648063  0.979870  194.6414  271.7315   22.6809  20201226  10.5  4.0  C/2016 T3 (PANSTARRS)                                    MPC110082
    CK16U010  2017 01 13.8714  0.323086  1.000406  162.8228   61.5338   46.3238  20201226  17.0  4.0  C/2016 U1 (NEOWISE)                                      MPC103847
    CK16V18Z  2017 03  5.5443  0.914532  0.994426   36.4115   98.9203   23.9779  20201226  19.5  4.0  C/2016 VZ18 (PANSTARRS)                                  MPC106345
    PK16W48M  2017 02 23.8041  1.764697  0.783889   36.0827   59.9032  117.4458  20201226  15.0  4.0  P/2016 WM48 (Lemmon)                                     MPC106345
    CK16X010  2019 04 28.6280  7.562671  0.994158  224.5021  256.4097   26.4532  20201226   6.0  4.0  C/2016 X1 (Lemmon)                                       MPC119995
    CK17A010  2017 05 16.1805  2.290764  0.969961    2.0198  121.0447   49.7920  20201226  13.0  4.0  C/2017 A1 (PANSTARRS)                                    MPC108594
    CK17A030  2017 01 30.8561  3.846400  0.911476  304.0044   97.8992   98.5306  20201226   9.5  4.0  C/2017 A3 (Elenin)                                       MPC108594
    CK17A05B  2018 02 15.5175  9.212631  0.996141   78.3331   42.6421   32.4403  20201226   5.5  4.0  C/2017 AB5 (PANSTARRS)                                   MPC114598
    CK17B030  2019 02  2.5923  3.922926  1.001655  284.7930    2.1796   54.1701  20201226   6.0  4.0  C/2017 B3 (LINEAR)                                       MPC119995
    PK17B040  2017 01  5.8178  2.800894  0.364952   11.0197  121.4578   20.0584            14.5  4.0  P/2017 B4 (PANSTARRS)                                    MPC103847
    CK17C010  2017 01 18.4502  1.499333  0.927168  110.0745  357.5413   65.7586  20201226  18.0  4.0  C/2017 C1 (NEOWISE)                                      MPC104793
